[{"OBJECT_NAME":"ONEWEB-0276","OBJECT_ID":"2021-060AD","EPOCH":"2026-04-17T02:02:34.927008","MEAN_MOTION":13.16592503,"ECCENTRICITY":0.0001981,"INCLINATION":87.9064,"RA_OF_ASC_NODE":240.9129,"ARG_OF_PERICENTER":105.0411,"MEAN_ANOMALY":255.0939,"EPHEMERIS_TYPE":0,"CLASSIFICATION_TYPE":"U","NORAD_CAT_ID":48994,"ELEMENT_SET_NO":999,"REV_AT_EPOCH":23153,"BSTAR":-0.00021975,"MEAN_MOTION_DOT":-7.1e-07,"MEAN_MOTION_DDOT":0.0},{"OBJECT_NAME":"ONEWEB-0277","OBJECT_ID":"2021-060AE","EPOCH":"2026-04-16T09:55:54.259680","MEAN_MOTION":13.16593616,"ECCENTRICITY":0.0001947,"INCLINATION":87.9056,"RA_OF_ASC_NODE":241.0585,"ARG_OF_PERICENTER":97.1607,"MEAN_ANOMALY":262.9746,"EPHEMERIS_TYPE":0,"CLASSIFICATION_TYPE":"U","NORAD_CAT_ID":48995,"ELEMENT_SET_NO":999,"REV_AT_EPOCH":23143,"BSTAR":0.00014612,"MEAN_MOTION_DOT":6.9e-07,"MEAN_MOTION_DDOT":0.0},{"OBJECT_NAME":"ONEWEB-0278","OBJECT_ID":"2021-060AF","EPOCH":"2026-04-17T02:07:08.300064","MEAN_MOTION":13.16593074,"ECCENTRICITY":0.0001604,"INCLINATION":87.9063,"RA_OF_ASC_NODE":240.9097,"ARG_OF_PERICENTER":101.2411,"MEAN_ANOMALY":258.8901,"EPHEMERIS_TYPE":0,"CLASSIFICATION_TYPE":"U","NORAD_CAT_ID":48996,"ELEMENT_SET_NO":999,"REV_AT_EPOCH":23165,"BSTAR":-0.00018583,"MEAN_MOTION_DOT":-5.8e-07,"MEAN_MOTION_DDOT":0.0},{"OBJECT_NAME":"ONEWEB-0279","OBJECT_ID":"2021-060AG","EPOCH":"2026-04-16T15:21:55.960128","MEAN_MOTION":13.1659455,"ECCENTRICITY":0.0002136,"INCLINATION":87.9061,"RA_OF_ASC_NODE":240.9979,"ARG_OF_PERICENTER":99.0714,"MEAN_ANOMALY":261.0659,"EPHEMERIS_TYPE":0,"CLASSIFICATION_TYPE":"U","NORAD_CAT_ID":48997,"ELEMENT_SET_NO":999,"REV_AT_EPOCH":23152,"BSTAR":6.4694e-05,"MEAN_MOTION_DOT":3.8e-07,"MEAN_MOTION_DDOT":0.0},{"OBJECT_NAME":"ONEWEB-0280","OBJECT_ID":"2021-060AH","EPOCH":"2026-04-16T15:43:34.203936","MEAN_MOTION":13.16593106,"ECCENTRICITY":0.0001734,"INCLINATION":87.9062,"RA_OF_ASC_NODE":240.9996,"ARG_OF_PERICENTER":89.9009,"MEAN_ANOMALY":270.2321,"EPHEMERIS_TYPE":0,"CLASSIFICATION_TYPE":"U","NORAD_CAT_ID":48998,"ELEMENT_SET_NO":999,"REV_AT_EPOCH":23146,"BSTAR":-6.5231e-05,"MEAN_MOTION_DOT":-1.2e-07,"MEAN_MOTION_DDOT":0.0},{"OBJECT_NAME":"ONEWEB-0281","OBJECT_ID":"2021-060AJ","EPOCH":"2026-04-17T04:37:39.784512","MEAN_MOTION":13.16597398,"ECCENTRICITY":0.0001805,"INCLINATION":87.9065,"RA_OF_ASC_NODE":240.8868,"ARG_OF_PERICENTER":102.3585,"MEAN_ANOMALY":257.7749,"EPHEMERIS_TYPE":0,"CLASSIFICATION_TYPE":"U","NORAD_CAT_ID":48999,"ELEMENT_SET_NO":999,"REV_AT_EPOCH":23160,"BSTAR":1.8731e-05,"MEAN_MOTION_DOT":2e-07,"MEAN_MOTION_DDOT":0.0},{"OBJECT_NAME":"ONEWEB-0282","OBJECT_ID":"2021-060AK","EPOCH":"2026-04-17T07:10:22.387008","MEAN_MOTION":13.16593622,"ECCENTRICITY":0.0001887,"INCLINATION":87.9065,"RA_OF_ASC_NODE":240.8759,"ARG_OF_PERICENTER":96.3508,"MEAN_ANOMALY":263.7838,"EPHEMERIS_TYPE":0,"CLASSIFICATION_TYPE":"U","NORAD_CAT_ID":49000,"ELEMENT_SET_NO":999,"REV_AT_EPOCH":23159,"BSTAR":5.6157000000000005e-05,"MEAN_MOTION_DOT":3.4e-07,"MEAN_MOTION_DDOT":0.0},{"OBJECT_NAME":"ONEWEB-0283","OBJECT_ID":"2021-060AL","EPOCH":"2026-04-17T01:26:06.246528","MEAN_MOTION":13.16594096,"ECCENTRICITY":0.0001979,"INCLINATION":87.9062,"RA_OF_ASC_NODE":240.9232,"ARG_OF_PERICENTER":99.0641,"MEAN_ANOMALY":261.0714,"EPHEMERIS_TYPE":0,"CLASSIFICATION_TYPE":"U","NORAD_CAT_ID":49001,"ELEMENT_SET_NO":999,"REV_AT_EPOCH":23157,"BSTAR":1.9722000000000002e-05,"MEAN_MOTION_DOT":2e-07,"MEAN_MOTION_DDOT":0.0},{"OBJECT_NAME":"ONEWEB-0284","OBJECT_ID":"2021-060AM","EPOCH":"2026-04-16T14:20:22.468992","MEAN_MOTION":13.16594159,"ECCENTRICITY":0.0001562,"INCLINATION":87.9064,"RA_OF_ASC_NODE":241.0073,"ARG_OF_PERICENTER":92.7378,"MEAN_ANOMALY":267.3932,"EPHEMERIS_TYPE":0,"CLASSIFICATION_TYPE":"U","NORAD_CAT_ID":49002,"ELEMENT_SET_NO":999,"REV_AT_EPOCH":23149,"BSTAR":0.00017547,"MEAN_MOTION_DOT":8e-07,"MEAN_MOTION_DDOT":0.0},{"OBJECT_NAME":"ONEWEB-0285","OBJECT_ID":"2021-075A","EPOCH":"2026-04-17T03:31:21.220896","MEAN_MOTION":13.12442847,"ECCENTRICITY":0.0001818,"INCLINATION":87.9006,"RA_OF_ASC_NODE":2.7873,"ARG_OF_PERICENTER":77.8782,"MEAN_ANOMALY":282.2551,"EPHEMERIS_TYPE":0,"CLASSIFICATION_TYPE":"U","NORAD_CAT_ID":49075,"ELEMENT_SET_NO":999,"REV_AT_EPOCH":22720,"BSTAR":0.0011052,"MEAN_MOTION_DOT":4.1e-06,"MEAN_MOTION_DDOT":0.0},{"OBJECT_NAME":"ONEWEB-0286","OBJECT_ID":"2021-075B","EPOCH":"2026-04-17T03:05:31.979040","MEAN_MOTION":13.12442342,"ECCENTRICITY":0.0001662,"INCLINATION":87.8998,"RA_OF_ASC_NODE":2.8137,"ARG_OF_PERICENTER":84.2333,"MEAN_ANOMALY":275.8985,"EPHEMERIS_TYPE":0,"CLASSIFICATION_TYPE":"U","NORAD_CAT_ID":49076,"ELEMENT_SET_NO":999,"REV_AT_EPOCH":22655,"BSTAR":-0.00066572,"MEAN_MOTION_DOT":-2.27e-06,"MEAN_MOTION_DDOT":0.0},{"OBJECT_NAME":"ONEWEB-0287","OBJECT_ID":"2021-075C","EPOCH":"2026-04-17T02:44:06.165600","MEAN_MOTION":13.17648572,"ECCENTRICITY":0.0001434,"INCLINATION":87.9181,"RA_OF_ASC_NODE":17.9985,"ARG_OF_PERICENTER":86.6622,"MEAN_ANOMALY":273.4674,"EPHEMERIS_TYPE":0,"CLASSIFICATION_TYPE":"U","NORAD_CAT_ID":49077,"ELEMENT_SET_NO":999,"REV_AT_EPOCH":22558,"BSTAR":-0.00074161,"MEAN_MOTION_DOT":-2.75e-06,"MEAN_MOTION_DDOT":0.0},{"OBJECT_NAME":"ONEWEB-0288","OBJECT_ID":"2021-075D","EPOCH":"2026-04-17T04:21:22.095072","MEAN_MOTION":13.12443475,"ECCENTRICITY":0.0001546,"INCLINATION":87.9008,"RA_OF_ASC_NODE":2.7744,"ARG_OF_PERICENTER":78.0606,"MEAN_ANOMALY":282.0696,"EPHEMERIS_TYPE":0,"CLASSIFICATION_TYPE":"U","NORAD_CAT_ID":49078,"ELEMENT_SET_NO":999,"REV_AT_EPOCH":22718,"BSTAR":-0.00040994,"MEAN_MOTION_DOT":-1.35e-06,"MEAN_MOTION_DDOT":0.0},{"OBJECT_NAME":"ONEWEB-0289","OBJECT_ID":"2021-075E","EPOCH":"2026-04-17T03:39:48.057120","MEAN_MOTION":13.17647749,"ECCENTRICITY":0.0001861,"INCLINATION":87.9195,"RA_OF_ASC_NODE":18.0045,"ARG_OF_PERICENTER":66.1524,"MEAN_ANOMALY":293.9802,"EPHEMERIS_TYPE":0,"CLASSIFICATION_TYPE":"U","NORAD_CAT_ID":49079,"ELEMENT_SET_NO":999,"REV_AT_EPOCH":22616,"BSTAR":6.988400000000001e-05,"MEAN_MOTION_DOT":4e-07,"MEAN_MOTION_DDOT":0.0},{"OBJECT_NAME":"ONEWEB-0290","OBJECT_ID":"2021-075F","EPOCH":"2026-04-17T04:50:30.345504","MEAN_MOTION":13.17650779,"ECCENTRICITY":0.0001939,"INCLINATION":87.9193,"RA_OF_ASC_NODE":17.9648,"ARG_OF_PERICENTER":62.0882,"MEAN_ANOMALY":298.0446,"EPHEMERIS_TYPE":0,"CLASSIFICATION_TYPE":"U","NORAD_CAT_ID":49080,"ELEMENT_SET_NO":999,"REV_AT_EPOCH":22558,"BSTAR":0.00031096000000000004,"MEAN_MOTION_DOT":1.34e-06,"MEAN_MOTION_DDOT":0.0},{"OBJECT_NAME":"ONEWEB-0291","OBJECT_ID":"2021-075G","EPOCH":"2026-04-17T04:28:35.443776","MEAN_MOTION":13.17648511,"ECCENTRICITY":0.0001447,"INCLINATION":87.9196,"RA_OF_ASC_NODE":17.9762,"ARG_OF_PERICENTER":73.7586,"MEAN_ANOMALY":286.3704,"EPHEMERIS_TYPE":0,"CLASSIFICATION_TYPE":"U","NORAD_CAT_ID":49081,"ELEMENT_SET_NO":999,"REV_AT_EPOCH":22557,"BSTAR":-0.0006403299999999999,"MEAN_MOTION_DOT":-2.36e-06,"MEAN_MOTION_DDOT":0.0}]