ONEWEB-0276             
1 48994U 21060AD  26107.08512647 -.00000071  00000+0 -21975-3 0  9998
2 48994  87.9064 240.9129 0001981 105.0411 255.0939 13.16592503231530
ONEWEB-0277             
1 48995U 21060AE  26106.41382245  .00000069  00000+0  14612-3 0  9999
2 48995  87.9056 241.0585 0001947  97.1607 262.9746 13.16593616231438
ONEWEB-0278             
1 48996U 21060AF  26107.08829051 -.00000058  00000+0 -18583-3 0  9996
2 48996  87.9063 240.9097 0001604 101.2411 258.8901 13.16593074231652
ONEWEB-0279             
1 48997U 21060AG  26106.64023102  .00000038  00000+0  64694-4 0  9992
2 48997  87.9061 240.9979 0002136  99.0714 261.0659 13.16594550231523
ONEWEB-0280             
1 48998U 21060AH  26106.65525699 -.00000012  00000+0 -65231-4 0  9994
2 48998  87.9062 240.9996 0001734  89.9009 270.2321 13.16593106231469
ONEWEB-0281             
1 48999U 21060AJ  26107.19282158  .00000020  00000+0  18731-4 0  9995
2 48999  87.9065 240.8868 0001805 102.3585 257.7749 13.16597398231605
ONEWEB-0282             
1 49000U 21060AK  26107.29887022  .00000034  00000+0  56157-4 0  9990
2 49000  87.9065 240.8759 0001887  96.3508 263.7838 13.16593622231595
ONEWEB-0283             
1 49001U 21060AL  26107.05979452  .00000020  00000+0  19722-4 0  9996
2 49001  87.9062 240.9232 0001979  99.0641 261.0714 13.16594096231578
ONEWEB-0284             
1 49002U 21060AM  26106.59748228  .00000080  00000+0  17547-3 0  9998
2 49002  87.9064 241.0073 0001562  92.7378 267.3932 13.16594159231493
ONEWEB-0285             
1 49075U 21075A   26107.14677339  .00000410  00000+0  11052-2 0  9991
2 49075  87.9006   2.7873 0001818  77.8782 282.2551 13.12442847227205
ONEWEB-0286             
1 49076U 21075B   26107.12884235 -.00000227  00000+0 -66572-3 0  9991
2 49076  87.8998   2.8137 0001662  84.2333 275.8985 13.12442342226556
ONEWEB-0287             
1 49077U 21075C   26107.11396025 -.00000275  00000+0 -74161-3 0  9992
2 49077  87.9181  17.9985 0001434  86.6622 273.4674 13.17648572225583
ONEWEB-0288             
1 49078U 21075D   26107.18150573 -.00000135  00000+0 -40994-3 0  9998
2 49078  87.9008   2.7744 0001546  78.0606 282.0696 13.12443475227186
ONEWEB-0289             
1 49079U 21075E   26107.15263955  .00000040  00000+0  69884-4 0  9998
2 49079  87.9195  18.0045 0001861  66.1524 293.9802 13.17647749226167
ONEWEB-0290             
1 49080U 21075F   26107.20174011  .00000134  00000+0  31096-3 0  9997
2 49080  87.9193  17.9648 0001939  62.0882 298.0446 13.17650779225584
ONEWEB-0291             
1 49081U 21075G   26107.18652134 -.00000236  00000+0 -64033-3 0  9994
2 49081  87.9196  17.9762 0001447  73.7586 286.3704 13.17648511225576
